#aV2007 12 17  0  0   .00000000      96 DD+AD WGS84 FIT  NGA
## 1458  86400.00000000   900.00000000 54451  .0000000000000
+   31     1  2  3  4  5  6  7  8  9 10 11 12 13 14 15 16 17
+         18 19 20 21 22 23 24 25 26 27 28 30 31 32  0  0  0
+          0  0  0  0  0  0  0  0  0  0  0  0  0  0  0  0  0
+          0  0  0  0  0  0  0  0  0  0  0  0  0  0  0  0  0
+          0  0  0  0  0  0  0  0  0  0  0  0  0  0  0  0  0
++         0  0  0  0  0  0  0  0  0  0  0  0  0  0  0  0  0
++         0  0  0  0  0  0  0  0  0  0  0  0  0  0  0  0  0
++         0  0  0  0  0  0  0  0  0  0  0  0  0  0  0  0  0
++         0  0  0  0  0  0  0  0  0  0  0  0  0  0  0  0  0
++         0  0  0  0  0  0  0  0  0  0  0  0  0  0  0  0  0
%c cc cc ccc ccc cccc cccc cccc cccc ccccc ccccc ccccc ccccc
%c cc cc ccc ccc cccc cccc cccc cccc ccccc ccccc ccccc ccccc
%f  0.0000000  0.000000000  0.00000000000  0.000000000000000
%f  0.0000000  0.000000000  0.00000000000  0.000000000000000
%i    0    0    0    0      0      0      0      0         0
%i    0    0    0    0      0      0      0      0         0
/*      NGA, ST. LOUIS,MO.                                  
/*   EPHEMERIS COMPUTED FROM  3 DAYS OF DATA                
/* CCCCCCCCCCCCCCCCCCCCCCCCCCCCCCCCCCCCCCCCCCCCCCCCCCCCCCCCC
/* CCCCCCCCCCCCCCCCCCCCCCCCCCCCCCCCCCCCCCCCCCCCCCCCCCCCCCCCC
*  2007 12 17  3 30   .00000000                                                 
P  1 -19616.961983 -17795.631174  -2250.182756    173.075914                    
V  1   -904.266229  -3482.702617  32190.975725       .024191                    
P  2  14051.281261   8001.974801 -21297.551828    158.965764                    
V  2  -5910.379982  25964.186513   5591.624375       .028710                    
P  3 -23446.316117  -8711.001399   9183.307675    159.334911                    
V  3  -7646.153611  -9776.016958 -27702.548610       .054115                    
P  4   7912.122908  19087.408873 -16567.362356    -38.027659                    
V  4  -7003.641804  20009.660685  20175.372760      -.052181                    
P  5  17842.529236 -16295.995059 -11124.969248    600.590908                    
V  5  13899.255037  -2615.269839  26893.194956       .199951                    
P  6   2459.894791 -17199.507647 -19903.501670    187.168370                    
V  6  20590.996043  15566.413230 -10834.488636      -.125076                    
P  7  -1561.368592 -18692.653345 -18463.106096    -27.273450                    
V  7  20113.139031  13643.138797 -15268.574296      -.053688                    
P  8    885.335333  24015.225789  10675.613608   -133.721844                    
V  8  -5807.962020  12755.502893 -28416.852405      -.013328                    
P  9  13715.798971 -15854.761735  15587.076803    101.366739                    
V  9  -1670.309803  21012.885671  22161.929498       .017436                    
P 10  24782.036132     47.691644 -10119.956999   -176.293879                    
V 10 -11475.265751   5503.145466 -28093.205084      -.117503                    
P 11 -12407.231022  18090.487353  14621.063511     26.612797                    
V 11  -3077.932326 -19276.417643  21362.538760       .002420                    
P 12  22555.627378 -12146.806750  -6783.820909   -351.617734                    
V 12   9151.652626    -91.756298  30259.943093      -.011275                    
P 13   -795.783948  17526.858923 -20052.508014    228.359689                    
V 13 -18377.076589 -17171.435944 -14327.234538       .025266                    
P 14 -14003.477697 -21053.974311   8387.763995   -312.577000                    
V 14   8715.051819   6012.999789  29914.044851       .027444                    
P 15  19365.406845     96.258721  18196.860165    -71.283285                    
V 15  16154.315705  16542.796672 -17325.149181       .012200                    
P 16 -22309.806072  -3455.621186 -14056.801954    129.140047                    
V 16  16566.407777  -7049.189928 -24268.772876       .012848                    
P 17  13431.841259  21140.432638   9076.552752     46.433984                    
V 17 -10094.884958  -5965.916990  28745.914539      -.009584                    
P 18   7174.406853 -16512.294031  19582.756496   -218.791111                    
V 18  24149.090177  -5152.604450 -13651.004792       .025263                    
P 19 -19188.544317  -1186.942376  18475.786575     12.411588                    
V 19 -15058.994455 -17765.832530 -16702.224826       .018279                    
P 20 -20531.462060  14002.025826  -9414.731222    124.356786                    
V 20 -12134.542494   1056.364733  28393.595145      -.007202                    
P 21   5237.554342 -25672.683600   1487.255379     75.138334                    
V 21   4356.183728   -721.943663 -31542.990682      -.005856                    
P 22  -7957.675725 -13788.438351  21425.424556    205.245368                    
V 22  25821.395580  -7453.168156   4792.013630       .008428                    
P 23 -12661.091595   8609.394983 -21786.156854    318.561529                    
V 23 -20118.161078 -18685.299334   4094.115788       .032097                    
P 24  12803.290660 -21334.291421  -9515.489532     54.547496                    
V 24   -779.541434  12494.240987 -28231.226361       .032203                    
P 25  -6645.618598  25205.161809  -5146.398861    491.729668                    
V 25  -1758.595067  -7231.566792 -30795.097390       .037651                    
P 26  20193.314556   4921.591737  16397.509350    128.053362                    
V 26  14525.188705  15763.901982 -21477.187443       .114148                    
P 27  -2820.987059  26275.851964   1801.235063    154.681504                    
V 27  -2953.193301   1057.276944 -31921.130810       .024345                    
P 28   4997.515373  14516.937663  22034.888628    -12.147586                    
V 28 -26059.634911   7504.453959    637.743096      -.005698                    
P 30  12797.507861 -16999.745313 -16167.110892     56.398630                    
V 30  19524.942407  -4814.942647  21048.368731       .013980                    
P 31  -8992.907308 -17177.559825 -17908.899670     -1.664861                    
V 31   6424.365904 -22325.633365  18059.936730      -.015405                    
P 32 -16860.457752  -9240.256038  18716.979234    173.860184                    
V 32  21978.549434  -6376.532534  17230.505342       .118931                    
EOF
